start=new Date('2023-04-21T00:00:00.000Z').valueOf();
sats=[{"APOAPSIS":"540.482","EPOCH":"2023-04-20T19:24:11.583360","COUNTRY_CODE":"US","SITE":"AFWTR","RCS_SIZE":"LARGE","OBJECT_NAME":"STARLINK-3293","MEAN_MOTION_DDOT":"0.0000000000000","TLE_LINE1":"1 50176U 21125W   23110.80846740  .00004317  00000-0  28917-3 0  9999","FILE":"3891109","GP_ID":"230460561","MEAN_MOTION":"15.08839860","OBJECT_TYPE":"PAYLOAD","OBJECT_ID":"2021-125W","TIME_SYSTEM":"UTC","REV_AT_EPOCH":"7754","ARG_OF_PERICENTER":"82.2852","RA_OF_ASC_NODE":"300.1761","CLASSIFICATION_TYPE":"U","NORAD_CAT_ID":"50176","MEAN_ANOMALY":"277.8261","ELEMENT_SET_NO":"999","INCLINATION":"53.2169","BSTAR":"0.00028917000000","MEAN_ELEMENT_THEORY":"SGP4","MEAN_MOTION_DOT":"0.00004317","DECAY_DATE":null,"EPHEMERIS_TYPE":"0","LAUNCH_DATE":"2021-12-18","SEMIMAJOR_AXIS":"6917.881","PERIOD":"95.438","CENTER_NAME":"EARTH","PERIAPSIS":"539.010","REF_FRAME":"TEME","TLE_LINE2":"2 50176  53.2169 300.1761 0001064  82.2852 277.8261 15.08839860 77547","ECCENTRICITY":"0.00010640"},{"EPHEMERIS_TYPE":"0","DECAY_DATE":null,"MEAN_MOTION_DOT":"0.00002656","MEAN_ELEMENT_THEORY":"SGP4","BSTAR":"0.00018489000000","INCLINATION":"53.2147","ELEMENT_SET_NO":"999","MEAN_ANOMALY":"269.8642","NORAD_CAT_ID":"50177","CLASSIFICATION_TYPE":"U","ECCENTRICITY":"0.00016360","TLE_LINE2":"2 50177  53.2147 300.1245 0001636  90.2537 269.8642 15.08847507 77502","PERIAPSIS":"538.591","REF_FRAME":"TEME","CENTER_NAME":"EARTH","PERIOD":"95.437","SEMIMAJOR_AXIS":"6917.857","LAUNCH_DATE":"2021-12-18","OBJECT_NAME":"STARLINK-3282","RCS_SIZE":"LARGE","SITE":"AFWTR","COUNTRY_CODE":"US","APOAPSIS":"540.854","EPOCH":"2023-04-20T19:40:05.140416","RA_OF_ASC_NODE":"300.1245","ARG_OF_PERICENTER":"90.2537","REV_AT_EPOCH":"7750","TIME_SYSTEM":"UTC","OBJECT_ID":"2021-125X","OBJECT_TYPE":"PAYLOAD","MEAN_MOTION":"15.08847507","GP_ID":"230459309","FILE":"3891109","TLE_LINE1":"1 50177U 21125X   23110.81950394  .00002656  00000-0  18489-3 0  9999","MEAN_MOTION_DDOT":"0.0000000000000"},{"TLE_LINE2":"2 50178  53.2163 302.6043 0001439  84.2930 275.8226 15.08834440 77456","PERIAPSIS":"538.767","REF_FRAME":"TEME","ECCENTRICITY":"0.00014390","LAUNCH_DATE":"2021-12-18","PERIOD":"95.438","SEMIMAJOR_AXIS":"6917.897","CENTER_NAME":"EARTH","MEAN_ELEMENT_THEORY":"SGP4","BSTAR":"0.00004482300000","DECAY_DATE":null,"MEAN_MOTION_DOT":"0.00000425","EPHEMERIS_TYPE":"0","CLASSIFICATION_TYPE":"U","NORAD_CAT_ID":"50178","MEAN_ANOMALY":"275.8226","INCLINATION":"53.2163","ELEMENT_SET_NO":"999","TIME_SYSTEM":"UTC","REV_AT_EPOCH":"7745","RA_OF_ASC_NODE":"302.6043","ARG_OF_PERICENTER":"84.2930","TLE_LINE1":"1 50178U 21125Y   23110.23532651  .00000425  00000-0  44823-4 0  9992","MEAN_MOTION_DDOT":"0.0000000000000","GP_ID":"230428286","FILE":"3890827","OBJECT_TYPE":"PAYLOAD","OBJECT_ID":"2021-125Y","MEAN_MOTION":"15.08834440","SITE":"AFWTR","RCS_SIZE":"LARGE","OBJECT_NAME":"STARLINK-3284","APOAPSIS":"540.758","EPOCH":"2023-04-20T05:38:52.210464","COUNTRY_CODE":"US"},{"BSTAR":"0.00002365800000","MEAN_ELEMENT_THEORY":"SGP4","DECAY_DATE":null,"MEAN_MOTION_DOT":"0.00000089","EPHEMERIS_TYPE":"0","CLASSIFICATION_TYPE":"U","NORAD_CAT_ID":"50179","MEAN_ANOMALY":"268.9100","INCLINATION":"53.2164","ELEMENT_SET_NO":"999","TLE_LINE2":"2 50179  53.2164 300.7540 0001139  91.2022 268.9100 15.08840435 77484","REF_FRAME":"TEME","PERIAPSIS":"538.956","ECCENTRICITY":"0.00011390","LAUNCH_DATE":"2021-12-18","PERIOD":"95.438","SEMIMAJOR_AXIS":"6917.879","CENTER_NAME":"EARTH","SITE":"AFWTR","RCS_SIZE":"LARGE","OBJECT_NAME":"STARLINK-3283","EPOCH":"2023-04-20T16:18:43.157952","APOAPSIS":"540.532","COUNTRY_CODE":"US","TIME_SYSTEM":"UTC","REV_AT_EPOCH":"7748","RA_OF_ASC_NODE":"300.7540","ARG_OF_PERICENTER":"91.2022","TLE_LINE1":"1 50179U 21125Z   23110.67966618  .00000089  00000-0  23658-4 0  9994","MEAN_MOTION_DDOT":"0.0000000000000","GP_ID":"230460810","FILE":"3891109","OBJECT_ID":"2021-125Z","OBJECT_TYPE":"PAYLOAD","MEAN_MOTION":"15.08840435"},{"MEAN_MOTION_DDOT":"0.0000000000000","TLE_LINE1":"1 50180U 21125AA  23110.79837317  .00006132  00000-0  40279-3 0  9994","FILE":"3891109","GP_ID":"230461061","MEAN_MOTION":"15.08860278","OBJECT_TYPE":"PAYLOAD","OBJECT_ID":"2021-125AA","TIME_SYSTEM":"UTC","REV_AT_EPOCH":"7754","ARG_OF_PERICENTER":"68.3826","RA_OF_ASC_NODE":"300.2284","EPOCH":"2023-04-20T19:09:39.441888","APOAPSIS":"540.168","COUNTRY_CODE":"US","SITE":"AFWTR","RCS_SIZE":"LARGE","OBJECT_NAME":"STARLINK-3265","LAUNCH_DATE":"2021-12-18","SEMIMAJOR_AXIS":"6917.818","PERIOD":"95.436","CENTER_NAME":"EARTH","REF_FRAME":"TEME","PERIAPSIS":"539.198","TLE_LINE2":"2 50180  53.2156 300.2284 0000701  68.3826 291.7241 15.08860278 77542","ECCENTRICITY":"0.00007010","CLASSIFICATION_TYPE":"U","NORAD_CAT_ID":"50180","MEAN_ANOMALY":"291.7241","ELEMENT_SET_NO":"999","INCLINATION":"53.2156","BSTAR":"0.00040279000000","MEAN_ELEMENT_THEORY":"SGP4","MEAN_MOTION_DOT":"0.00006132","DECAY_DATE":null,"EPHEMERIS_TYPE":"0"},{"CENTER_NAME":"EARTH","SEMIMAJOR_AXIS":"6917.882","PERIOD":"95.438","LAUNCH_DATE":"2021-12-18","ECCENTRICITY":"0.00012500","REF_FRAME":"TEME","PERIAPSIS":"538.882","TLE_LINE2":"2 50181  53.2173 300.2646 0001250  80.1315 279.9818 15.08839604 77502","ELEMENT_SET_NO":"999","INCLINATION":"53.2173","MEAN_ANOMALY":"279.9818","NORAD_CAT_ID":"50181","CLASSIFICATION_TYPE":"U","EPHEMERIS_TYPE":"0","MEAN_MOTION_DOT":"0.00000617","DECAY_DATE":null,"BSTAR":"0.00005682600000","MEAN_ELEMENT_THEORY":"SGP4","MEAN_MOTION":"15.08839604","OBJECT_ID":"2021-125AB","OBJECT_TYPE":"PAYLOAD","FILE":"3891109","GP_ID":"230459809","MEAN_MOTION_DDOT":"0.0000000000000","TLE_LINE1":"1 50181U 21125AB  23110.79102964  .00000617  00000-0  56826-4 0  9996","ARG_OF_PERICENTER":"80.1315","RA_OF_ASC_NODE":"300.2646","REV_AT_EPOCH":"7750","TIME_SYSTEM":"UTC","COUNTRY_CODE":"US","APOAPSIS":"540.611","EPOCH":"2023-04-20T18:59:04.960896","OBJECT_NAME":"STARLINK-3285","RCS_SIZE":"LARGE","SITE":"AFWTR"},{"LAUNCH_DATE":"2021-12-18","CENTER_NAME":"EARTH","SEMIMAJOR_AXIS":"6917.918","PERIOD":"95.438","REF_FRAME":"TEME","PERIAPSIS":"539.264","TLE_LINE2":"2 50182  53.2150 300.2928 0000751  59.4102 300.6964 15.08827632 77534","ECCENTRICITY":"0.00007510","NORAD_CAT_ID":"50182","CLASSIFICATION_TYPE":"U","ELEMENT_SET_NO":"999","INCLINATION":"53.2150","MEAN_ANOMALY":"300.6964","MEAN_MOTION_DOT":"0.00015653","DECAY_DATE":null,"BSTAR":"0.00099970000000","MEAN_ELEMENT_THEORY":"SGP4","EPHEMERIS_TYPE":"0","MEAN_MOTION_DDOT":"0.0000000000000","TLE_LINE1":"1 50182U 21125AC  23110.78270754  .00015653  00000-0  99970-3 0  9991","MEAN_MOTION":"15.08827632","OBJECT_ID":"2021-125AC","OBJECT_TYPE":"PAYLOAD","FILE":"3891109","GP_ID":"230460059","TIME_SYSTEM":"UTC","ARG_OF_PERICENTER":"59.4102","RA_OF_ASC_NODE":"300.2928","REV_AT_EPOCH":"7753","APOAPSIS":"540.303","EPOCH":"2023-04-20T18:47:05.931456","COUNTRY_CODE":"US","RCS_SIZE":"LARGE","SITE":"AFWTR","OBJECT_NAME":"STARLINK-3277"},{"FILE":"3891109","GP_ID":"230460311","MEAN_MOTION":"15.08841534","OBJECT_TYPE":"PAYLOAD","OBJECT_ID":"2021-125AD","MEAN_MOTION_DDOT":"0.0000000000000","TLE_LINE1":"1 50183U 21125AD  23110.78638893  .00001893  00000-0  13697-3 0  9997","REV_AT_EPOCH":"7754","ARG_OF_PERICENTER":"83.2280","RA_OF_ASC_NODE":"300.2759","TIME_SYSTEM":"UTC","COUNTRY_CODE":"US","APOAPSIS":"540.783","EPOCH":"2023-04-20T18:52:24.003552","OBJECT_NAME":"STARLINK-3281","SITE":"AFWTR","RCS_SIZE":"LARGE","SEMIMAJOR_AXIS":"6917.876","PERIOD":"95.437","CENTER_NAME":"EARTH","LAUNCH_DATE":"2021-12-18","ECCENTRICITY":"0.00015060","REF_FRAME":"TEME","PERIAPSIS":"538.699","TLE_LINE2":"2 50183  53.2157 300.2759 0001506  83.2280 276.8883 15.08841534 77547","MEAN_ANOMALY":"276.8883","ELEMENT_SET_NO":"999","INCLINATION":"53.2157","CLASSIFICATION_TYPE":"U","NORAD_CAT_ID":"50183","EPHEMERIS_TYPE":"0","MEAN_ELEMENT_THEORY":"SGP4","BSTAR":"0.00013697000000","MEAN_MOTION_DOT":"0.00001893","DECAY_DATE":null},{"COUNTRY_CODE":"US","APOAPSIS":"540.338","EPOCH":"2023-04-20T19:02:59.959392","OBJECT_NAME":"STARLINK-3279","SITE":"AFWTR","RCS_SIZE":"LARGE","GP_ID":"230460562","FILE":"3891109","OBJECT_ID":"2021-125AF","OBJECT_TYPE":"PAYLOAD","MEAN_MOTION":"15.08841987","TLE_LINE1":"1 50185U 21125AF  23110.79374953  .00002866  00000-0  19804-3 0  9991","MEAN_MOTION_DDOT":"0.0000000000000","REV_AT_EPOCH":"7750","RA_OF_ASC_NODE":"300.2415","ARG_OF_PERICENTER":"69.4178","TIME_SYSTEM":"UTC","MEAN_ANOMALY":"290.6907","INCLINATION":"53.2153","ELEMENT_SET_NO":"999","CLASSIFICATION_TYPE":"U","NORAD_CAT_ID":"50185","EPHEMERIS_TYPE":"0","MEAN_ELEMENT_THEORY":"SGP4","BSTAR":"0.00019804000000","DECAY_DATE":null,"MEAN_MOTION_DOT":"0.00002866","PERIOD":"95.437","SEMIMAJOR_AXIS":"6917.874","CENTER_NAME":"EARTH","LAUNCH_DATE":"2021-12-18","ECCENTRICITY":"0.00008650","TLE_LINE2":"2 50185  53.2153 300.2415 0000865  69.4178 290.6907 15.08841987 77502","REF_FRAME":"TEME","PERIAPSIS":"539.141"},{"ELEMENT_SET_NO":"999","INCLINATION":"53.2144","MEAN_ANOMALY":"259.8260","NORAD_CAT_ID":"50186","CLASSIFICATION_TYPE":"U","EPHEMERIS_TYPE":"0","MEAN_MOTION_DOT":"0.00000166","DECAY_DATE":null,"MEAN_ELEMENT_THEORY":"SGP4","BSTAR":"0.00002850100000","CENTER_NAME":"EARTH","SEMIMAJOR_AXIS":"6917.888","PERIOD":"95.438","LAUNCH_DATE":"2021-12-18","ECCENTRICITY":"0.00010880","REF_FRAME":"TEME","PERIAPSIS":"539.001","TLE_LINE2":"2 50186  53.2144 310.1790 0001088 100.2855 259.8260 15.08837385 77352","COUNTRY_CODE":"US","APOAPSIS":"540.506","EPOCH":"2023-04-20T19:22:51.989952","OBJECT_NAME":"STARLINK-3274","RCS_SIZE":"LARGE","SITE":"AFWTR","MEAN_MOTION":"15.08837385","OBJECT_ID":"2021-125AG","OBJECT_TYPE":"PAYLOAD","FILE":"3891109","GP_ID":"230459310","MEAN_MOTION_DDOT":"0.0000000000000","TLE_LINE1":"1 50186U 21125AG  23110.80754618  .00000166  00000-0  28501-4 0  9990","ARG_OF_PERICENTER":"100.2855","RA_OF_ASC_NODE":"310.1790","REV_AT_EPOCH":"7735","TIME_SYSTEM":"UTC"}];
